{
  "norad_id": 59720,
  "name": "STARLINK-11095 [DTC]",
  "history": [
    {
      "epoch": "2026-03-28T17:07:05.315808",
      "apogee_km": 360.26193211933423,
      "perigee_km": 359.1973491901108,
      "latitude_deg": -24.309817224695216,
      "longitude_deg": -139.527426879853,
      "semi_major_axis_km": 6737.866640654723,
      "eccentricity": 7.9e-05,
      "inclination_deg": 53.1599,
      "raan_deg": 232.2261,
      "arg_perigee_deg": 93.8168,
      "mean_anomaly_deg": 266.294,
      "mean_motion_rev_day": 15.6970899
    }
  ]
}