{"fetched_at":"2026-03-29T16:36:15Z","count":15609,"tles":[{"name":"STARLINK-11095 [DTC]","line1":"1 59720U 24088N   26087.71325597  .00000140  00000+0  60132-5 0  9998","line2":"2 59720  53.1599 232.2261 0000790  93.8168 266.2940 15.69708990109267","category":"Starlink"}]}